start=new Date('2021-11-01T00:00:00.000Z').valueOf();
sats=[{"REV_AT_EPOCH":"3651","OBJECT_TYPE":"PAYLOAD","MEAN_ELEMENT_THEORY":"SGP4","SITE":"AFETR","CLASSIFICATION_TYPE":"U","APOAPSIS":"548.264","COUNTRY_CODE":"US","EPHEMERIS_TYPE":"0","TLE_LINE2":"2 47897  53.0547 210.5504 0001499  83.5618 276.5542 15.06395895 36519","ARG_OF_PERICENTER":"83.5618","RA_OF_ASC_NODE":"210.5504","ECCENTRICITY":"0.00014990","MEAN_MOTION_DOT":"-0.00000198","MEAN_ANOMALY":"276.5542","NORAD_CAT_ID":"47897","MEAN_MOTION_DDOT":"0.0000000000000","EPOCH":"2021-10-31T10:33:39.339360","GP_ID":"188572631","FILE":"3194431","MEAN_MOTION":"15.06395895","OBJECT_NAME":"STARLINK-2357","TIME_SYSTEM":"UTC","CENTER_NAME":"EARTH","ELEMENT_SET_NO":"999","LAUNCH_DATE":"2021-03-14","REF_FRAME":"TEME","TLE_LINE1":"1 47897U 21021AP  21304.44003865 -.00000198  00000-0  56126-5 0  9995","BSTAR":"0.00000561260000","DECAY_DATE":null,"PERIAPSIS":"546.188","OBJECT_ID":"2021-021AP","PERIOD":"95.592","SEMIMAJOR_AXIS":"6925.361","INCLINATION":"53.0547","RCS_SIZE":"MEDIUM"},{"CLASSIFICATION_TYPE":"U","APOAPSIS":"548.266","EPHEMERIS_TYPE":"0","COUNTRY_CODE":"US","REV_AT_EPOCH":"3645","OBJECT_TYPE":"PAYLOAD","SITE":"AFETR","MEAN_ELEMENT_THEORY":"SGP4","MEAN_ANOMALY":"292.4893","MEAN_MOTION_DOT":"0.00001736","NORAD_CAT_ID":"47898","GP_ID":"188571385","MEAN_MOTION_DDOT":"0.0000000000000","EPOCH":"2021-10-31T10:24:24.120864","ARG_OF_PERICENTER":"67.6260","TLE_LINE2":"2 47898  53.0562 210.5550 0001547  67.6260 292.4893 15.06406089 36455","RA_OF_ASC_NODE":"210.5550","ECCENTRICITY":"0.00015470","LAUNCH_DATE":"2021-03-14","REF_FRAME":"TEME","TLE_LINE1":"1 47898U 21021AQ  21304.43361251  .00001736  00000-0  13537-3 0  9996","FILE":"3194431","MEAN_MOTION":"15.06406089","TIME_SYSTEM":"UTC","OBJECT_NAME":"STARLINK-2358","CENTER_NAME":"EARTH","ELEMENT_SET_NO":"999","PERIOD":"95.592","OBJECT_ID":"2021-021AQ","SEMIMAJOR_AXIS":"6925.330","RCS_SIZE":"LARGE","INCLINATION":"53.0562","BSTAR":"0.00013537000000","PERIAPSIS":"546.124","DECAY_DATE":null},{"LAUNCH_DATE":"2021-03-14","TLE_LINE1":"1 47899U 21021AR  21304.82892200  .00001645  00000-0  12927-3 0  9994","REF_FRAME":"TEME","MEAN_MOTION":"15.06404871","FILE":"3194950","ELEMENT_SET_NO":"999","CENTER_NAME":"EARTH","TIME_SYSTEM":"UTC","OBJECT_NAME":"STARLINK-2359","PERIOD":"95.592","OBJECT_ID":"2021-021AR","RCS_SIZE":"LARGE","INCLINATION":"53.0561","SEMIMAJOR_AXIS":"6925.334","BSTAR":"0.00012927000000","PERIAPSIS":"546.115","DECAY_DATE":null,"CLASSIFICATION_TYPE":"U","COUNTRY_CODE":"US","EPHEMERIS_TYPE":"0","APOAPSIS":"548.282","REV_AT_EPOCH":"3671","SITE":"AFETR","MEAN_ELEMENT_THEORY":"SGP4","OBJECT_TYPE":"PAYLOAD","MEAN_ANOMALY":"285.3986","MEAN_MOTION_DOT":"0.00001645","GP_ID":"188607032","MEAN_MOTION_DDOT":"0.0000000000000","EPOCH":"2021-10-31T19:53:38.860800","NORAD_CAT_ID":"47899","ARG_OF_PERICENTER":"74.7175","TLE_LINE2":"2 47899  53.0561 198.7781 0001565  74.7175 285.3986 15.06404871 36712","ECCENTRICITY":"0.00015650","RA_OF_ASC_NODE":"198.7781"},{"OBJECT_ID":"2021-021AS","PERIOD":"95.592","INCLINATION":"53.0557","RCS_SIZE":"LARGE","SEMIMAJOR_AXIS":"6925.358","BSTAR":"0.00007102700000","DECAY_DATE":null,"PERIAPSIS":"546.196","LAUNCH_DATE":"2021-03-14","TLE_LINE1":"1 47900U 21021AS  21304.45478876  .00000777  00000-0  71027-4 0  9997","REF_FRAME":"TEME","MEAN_MOTION":"15.06396827","FILE":"3194431","ELEMENT_SET_NO":"999","CENTER_NAME":"EARTH","OBJECT_NAME":"STARLINK-2360","TIME_SYSTEM":"UTC","MEAN_MOTION_DOT":"0.00000777","MEAN_ANOMALY":"283.3947","EPOCH":"2021-10-31T10:54:53.748864","MEAN_MOTION_DDOT":"0.0000000000000","GP_ID":"188572387","NORAD_CAT_ID":"47900","TLE_LINE2":"2 47900  53.0557 210.4598 0001483  76.7208 283.3947 15.06396827 36510","ARG_OF_PERICENTER":"76.7208","ECCENTRICITY":"0.00014830","RA_OF_ASC_NODE":"210.4598","CLASSIFICATION_TYPE":"U","EPHEMERIS_TYPE":"0","COUNTRY_CODE":"US","APOAPSIS":"548.250","REV_AT_EPOCH":"3651","MEAN_ELEMENT_THEORY":"SGP4","SITE":"AFETR","OBJECT_TYPE":"PAYLOAD"},{"SEMIMAJOR_AXIS":"6925.352","INCLINATION":"53.0526","RCS_SIZE":"LARGE","OBJECT_ID":"2021-021AT","PERIOD":"95.592","DECAY_DATE":null,"PERIAPSIS":"546.168","BSTAR":"0.00016371000000","REF_FRAME":"TEME","TLE_LINE1":"1 47901U 21021AT  21304.67685411  .00002158  00000-0  16371-3 0  9992","LAUNCH_DATE":"2021-03-14","OBJECT_NAME":"STARLINK-2361","TIME_SYSTEM":"UTC","ELEMENT_SET_NO":"999","CENTER_NAME":"EARTH","FILE":"3194950","MEAN_MOTION":"15.06398814","NORAD_CAT_ID":"47901","MEAN_MOTION_DDOT":"0.0000000000000","EPOCH":"2021-10-31T16:14:40.195104","GP_ID":"188606531","MEAN_MOTION_DOT":"0.00002158","MEAN_ANOMALY":"287.4920","RA_OF_ASC_NODE":"199.4588","ECCENTRICITY":"0.00015150","TLE_LINE2":"2 47901  53.0526 199.4588 0001515  72.6235 287.4920 15.06398814 36674","ARG_OF_PERICENTER":"72.6235","APOAPSIS":"548.266","EPHEMERIS_TYPE":"0","COUNTRY_CODE":"US","CLASSIFICATION_TYPE":"U","OBJECT_TYPE":"PAYLOAD","SITE":"AFETR","MEAN_ELEMENT_THEORY":"SGP4","REV_AT_EPOCH":"3667"},{"FILE":"3194469","MEAN_MOTION":"15.06401667","TIME_SYSTEM":"UTC","OBJECT_NAME":"STARLINK-2362","ELEMENT_SET_NO":"999","CENTER_NAME":"EARTH","LAUNCH_DATE":"2021-03-14","REF_FRAME":"TEME","TLE_LINE1":"1 47902U 21021AU  21304.46955155  .00000952  00000-0  82824-4 0  9992","BSTAR":"0.00008282400000","PERIAPSIS":"545.959","DECAY_DATE":null,"PERIOD":"95.592","OBJECT_ID":"2021-021AU","SEMIMAJOR_AXIS":"6925.343","RCS_SIZE":"LARGE","INCLINATION":"53.0540","REV_AT_EPOCH":"3588","OBJECT_TYPE":"PAYLOAD","SITE":"AFETR","MEAN_ELEMENT_THEORY":"SGP4","CLASSIFICATION_TYPE":"U","APOAPSIS":"548.458","COUNTRY_CODE":"US","EPHEMERIS_TYPE":"0","ARG_OF_PERICENTER":"69.9245","TLE_LINE2":"2 47902  53.0540 220.3790 0001804  69.9245 290.1938 15.06401667 35884","RA_OF_ASC_NODE":"220.3790","ECCENTRICITY":"0.00018040","MEAN_ANOMALY":"290.1938","MEAN_MOTION_DOT":"0.00000952","NORAD_CAT_ID":"47902","GP_ID":"188574244","MEAN_MOTION_DDOT":"0.0000000000000","EPOCH":"2021-10-31T11:16:09.253920"},{"BSTAR":"0.00010954000000","DECAY_DATE":null,"PERIAPSIS":"546.088","OBJECT_ID":"2021-021AV","PERIOD":"95.592","SEMIMAJOR_AXIS":"6925.357","INCLINATION":"53.0561","RCS_SIZE":"LARGE","FILE":"3194950","MEAN_MOTION":"15.06397400","OBJECT_NAME":"STARLINK-2363","TIME_SYSTEM":"UTC","ELEMENT_SET_NO":"999","CENTER_NAME":"EARTH","LAUNCH_DATE":"2021-03-14","REF_FRAME":"TEME","TLE_LINE1":"1 47903U 21021AV  21304.82524584  .00001350  00000-0  10954-3 0  9998","TLE_LINE2":"2 47903  53.0561 198.7966 0001637  64.1163 295.9995 15.06397400 37046","ARG_OF_PERICENTER":"64.1163","RA_OF_ASC_NODE":"198.7966","ECCENTRICITY":"0.00016370","MEAN_MOTION_DOT":"0.00001350","MEAN_ANOMALY":"295.9995","NORAD_CAT_ID":"47903","EPOCH":"2021-10-31T19:48:21.240576","MEAN_MOTION_DDOT":"0.0000000000000","GP_ID":"188607533","REV_AT_EPOCH":"3704","OBJECT_TYPE":"PAYLOAD","MEAN_ELEMENT_THEORY":"SGP4","SITE":"AFETR","CLASSIFICATION_TYPE":"U","APOAPSIS":"548.355","EPHEMERIS_TYPE":"0","COUNTRY_CODE":"US"},{"BSTAR":"-0.00003878200000","DECAY_DATE":null,"PERIAPSIS":"546.191","OBJECT_ID":"2021-021AW","PERIOD":"95.592","INCLINATION":"53.0549","RCS_SIZE":"LARGE","SEMIMAJOR_AXIS":"6925.356","MEAN_MOTION":"15.06397489","FILE":"3194431","CENTER_NAME":"EARTH","ELEMENT_SET_NO":"999","OBJECT_NAME":"STARLINK-2364","TIME_SYSTEM":"UTC","LAUNCH_DATE":"2021-03-14","TLE_LINE1":"1 47904U 21021AW  21304.42347969 -.00000859  00000-0 -38782-4 0  9990","REF_FRAME":"TEME","TLE_LINE2":"2 47904  53.0549 200.5926 0001488  76.0378 284.0777 15.06397489 36622","ARG_OF_PERICENTER":"76.0378","ECCENTRICITY":"0.00014880","RA_OF_ASC_NODE":"200.5926","MEAN_MOTION_DOT":"-0.00000859","MEAN_ANOMALY":"284.0777","MEAN_MOTION_DDOT":"0.0000000000000","EPOCH":"2021-10-31T10:09:48.645216","GP_ID":"188572888","NORAD_CAT_ID":"47904","REV_AT_EPOCH":"3662","SITE":"AFETR","MEAN_ELEMENT_THEORY":"SGP4","OBJECT_TYPE":"PAYLOAD","CLASSIFICATION_TYPE":"U","EPHEMERIS_TYPE":"0","COUNTRY_CODE":"US","APOAPSIS":"548.252"},{"REV_AT_EPOCH":"3679","MEAN_ELEMENT_THEORY":"SGP4","SITE":"AFETR","OBJECT_TYPE":"PAYLOAD","CLASSIFICATION_TYPE":"U","EPHEMERIS_TYPE":"0","COUNTRY_CODE":"US","APOAPSIS":"548.295","TLE_LINE2":"2 47905  53.0554 199.4211 0001538  72.2170 287.8987 15.06394517 36797","ARG_OF_PERICENTER":"72.2170","ECCENTRICITY":"0.00015380","RA_OF_ASC_NODE":"199.4211","MEAN_MOTION_DOT":"0.00001660","MEAN_ANOMALY":"287.8987","EPOCH":"2021-10-31T16:26:39.758496","MEAN_MOTION_DDOT":"0.0000000000000","GP_ID":"188606031","NORAD_CAT_ID":"47905","MEAN_MOTION":"15.06394517","FILE":"3194950","CENTER_NAME":"EARTH","ELEMENT_SET_NO":"999","OBJECT_NAME":"STARLINK-2365","TIME_SYSTEM":"UTC","LAUNCH_DATE":"2021-03-14","TLE_LINE1":"1 47905U 21021AX  21304.68518239  .00001660  00000-0  13033-3 0  9999","REF_FRAME":"TEME","BSTAR":"0.00013033000000","DECAY_DATE":null,"PERIAPSIS":"546.165","OBJECT_ID":"2021-021AX","PERIOD":"95.592","INCLINATION":"53.0554","RCS_SIZE":"LARGE","SEMIMAJOR_AXIS":"6925.365"},{"MEAN_MOTION_DOT":"0.00035348","MEAN_ANOMALY":"75.1293","MEAN_MOTION_DDOT":"0.0000000000000","EPOCH":"2021-10-31T21:01:28.606656","GP_ID":"188606281","NORAD_CAT_ID":"47906","TLE_LINE2":"2 47906  53.0503 153.8999 0009330 284.8691  75.1293 15.71497253 37440","ARG_OF_PERICENTER":"284.8691","ECCENTRICITY":"0.00093300","RA_OF_ASC_NODE":"153.8999","CLASSIFICATION_TYPE":"U","EPHEMERIS_TYPE":"0","COUNTRY_CODE":"US","APOAPSIS":"360.901","REV_AT_EPOCH":"3744","MEAN_ELEMENT_THEORY":"SGP4","SITE":"AFETR","OBJECT_TYPE":"PAYLOAD","OBJECT_ID":"2021-021AY","PERIOD":"91.632","INCLINATION":"53.0503","RCS_SIZE":"LARGE","SEMIMAJOR_AXIS":"6732.754","BSTAR":"0.00027361000000","DECAY_DATE":null,"PERIAPSIS":"348.338","LAUNCH_DATE":"2021-03-14","TLE_LINE1":"1 47906U 21021AY  21304.87602554  .00035348  00000-0  27361-3 0  9994","REF_FRAME":"TEME","MEAN_MOTION":"15.71497253","FILE":"3194950","ELEMENT_SET_NO":"999","CENTER_NAME":"EARTH","OBJECT_NAME":"STARLINK-2366","TIME_SYSTEM":"UTC"}];
